MONITOR-4 (RS57S)       
1 57182U 23091S   26141.71436564  .00007470  00000+0  28132-3 0  9994
2 57182  97.5085 204.9458 0011878 185.5827 174.5281 15.27333343160258
MONITOR-2 (RS39S)       
1 57184U 23091U   26141.76120997  .00003288  00000+0  16197-3 0  9992
2 57184  97.5085 200.2180 0010861 196.4813 163.6070 15.18628477159942
SVYATOBOR 1 (RS60S)     
1 57187U 23091X   26141.70535133  .00006031  00000+0  23644-3 0  9995
2 57187  97.5097 205.3842 0009816 176.2033 183.9281 15.26099515160278
HORS 1                  
1 57188U 23091Y   26141.75820986  .00006308  00000+0  24645-3 0  9993
2 57188  97.5077 205.2032 0009291 175.3304 184.8022 15.26199706160282
VIZARD-METEO (RS38S)    
1 57189U 23091Z   26141.75587597  .00011442  00000+0  33812-3 0  9993
2 57189  97.5097 210.7288 0008422 156.5364 203.6265 15.35076049160633
SITRO-AIS 6 (CHIRKIN)   
1 57192U 23091AC  26141.74800442  .00006223  00000+0  24918-3 0  9991
2 57192  97.5076 204.6644 0011712 191.0378 169.0604 15.25361874160259
SITRO-AIS 8 (ANOKHIN)   
1 57193U 23091AD  26141.69494133  .00009703  00000+0  32272-3 0  9990
2 57193  97.5064 206.8378 0010886 183.4262 176.6907 15.31322493160399
SITRO-AIS 7 (FARTUSHNIY)
1 57194U 23091AE  26141.74585399  .00006113  00000+0  24703-3 0  9994
2 57194  97.5074 204.5007 0011522 192.1203 167.9759 15.25063061160243
AVION KALUGA 650        
1 57195U 23091AF  26141.70133992  .00003813  00000+0  17991-3 0  9994
2 57195  97.5100 201.3890 0010119 193.8397 166.2562 15.20030125160000
HORS 2                  
1 57196U 23091AG  26141.70283742  .00009187  00000+0  30775-3 0  9999
2 57196  97.5096 208.3850 0008900 167.5090 192.6373 15.31129764160475
A-SEANSAT-PG1           
1 57197U 23091AH  26141.69982528  .00012156  00000+0  34950-3 0  9995
2 57197  97.5086 210.7353 0008236 163.4907 196.6606 15.35922687160645
SITRO-AIS 10 (BURDAEV)  
1 57199U 23091AK  26141.70519929  .00013396  00000+0  36613-3 0  9995
2 57199  97.5086 211.6356 0007784 157.8093 202.3490 15.37484584160692
SITRO-AIS 9 (SHCHUKIN)  
1 57201U 23091AM  26141.72348234  .00013181  00000+0  36560-3 0  9993
2 57201  97.5084 211.4044 0007983 158.2041 201.9544 15.37027539160682
UTMN 2 (RS27S)          
1 57203U 23091AP  26141.73309285  .00009016  00000+0  30033-3 0  9990
2 57203  97.5094 208.6006 0008900 163.2569 196.8968 15.31315742160493
SITRO-AIS 12 (SMIRENNIY)
1 57204U 23091AQ  26141.71905479  .00013202  00000+0  36286-3 0  9994
2 57204  97.5096 211.8505 0007740 152.9239 207.2410 15.37313974160700
SITRO-AIS 11 (SHEFFER)  
1 57208U 23091AU  26141.73956760  .00014066  00000+0  38148-3 0  9997
2 57208  97.5095 212.1019 0007659 152.6914 207.4735 15.37712371160721
H2SAT (HEINRICH HERTZ)  
1 57213U 23093A   26141.73397691 -.00000006  00000+0  00000+0 0  9999
2 57213   0.0115 260.6667 0000758 197.2394  46.3851  1.00270461 10655
KUZGTU 1 (RS47S)        
1 57217U 23091AV  26141.73450311  .00008173  00000+0  29086-3 0  9991
2 57217  97.5071 205.9569 0011308 181.6259 178.4946 15.29170889160336
QIANKUN-1               
1 57422U 23103B   26141.40671115  .00016760  17838-5  20804-4 0  9998
2 57422  96.1660 188.1005 0023714 124.6908 235.6616 16.07631940162993
FENGYUN 3F              
1 57490U 23111A   26141.76108463  .00000014  00000+0  27216-4 0  9998
2 57490  98.6841 212.2607 0001392 111.3878 248.7447 14.19933850145118
HJ-2F                   
1 57519U 23116A   26141.75916164  .00005325  00000+0  23668-3 0  9995
2 57519  97.3852 147.4472 0010323 127.5198 232.6978 15.21894376154737
XRISM                   
1 57800U 23137A   26141.52652008  .00002355  00000+0  12756-3 0  9996
2 57800  31.0008 172.2659 0007556  54.9756 305.1591 15.12204164148828
METEOR-M2 4             
1 59051U 24039A   26141.73480171  .00000002  00000+0  20408-4 0  9992
2 59051  98.6997 101.3679 0005981 242.8591 117.1977 14.22426444115509
GRBBETA                 
1 60237U 24128C   26141.73716770  .00003096  00000+0  21928-3 0  9999
2 60237  61.9903 309.0505 0044299 129.2445 231.2592 15.06392876102289
TRANSPORTER-11 OBJECT A 
1 60468U 24149A   26141.71194925  .00005745  00000+0  18601-3 0  9995
2 60468  97.3729 221.7337 0002092 343.0561  17.0611 15.32422746 98002
WARATAH SEED-1          
1 60469U 24149B   26141.71962598  .00009035  00000+0  26674-3 0  9990
2 60469  97.3687 222.2844 0001004  25.5767 334.5526 15.35199044 98059
PHISAT 2                
1 60470U 24149C   26141.70497922  .00005599  00000+0  19171-3 0  9990
2 60470  97.3755 221.0773 0001549  42.2706 317.8654 15.30628632 97946
LEMUR-2-TOMATOKECHUP    
1 60471U 24149D   26141.71841995  .00007292  00000+0  21431-3 0  9999
2 60471  97.3796 223.7105 0001230  39.2808 320.8524 15.35415070 98100
CONNECTA IOT-1          
1 60472U 24149E   26141.75674036  .00002744  00000+0  11860-3 0  9996
2 60472  97.3758 218.4985 0002702  50.6368 309.5108 15.23307558 97771
