OBJECT_NAME,OBJECT_ID,EPOCH,MEAN_MOTION,ECCENTRICITY,INCLINATION,RA_OF_ASC_NODE,ARG_OF_PERICENTER,MEAN_ANOMALY,EPHEMERIS_TYPE,CLASSIFICATION_TYPE,NORAD_CAT_ID,ELEMENT_SET_NO,REV_AT_EPOCH,BSTAR,MEAN_MOTION_DOT,MEAN_MOTION_DDOT
MONITOR-4 (RS57S),2023-091S,2026-05-21T17:08:41.191296,15.27333343,.0011878,97.5085,204.9458,185.5827,174.5281,0,U,57182,999,16025,.28132E-3,.747E-4,0
MONITOR-2 (RS39S),2023-091U,2026-05-21T18:16:08.541408,15.18628477,.0010861,97.5085,200.2180,196.4813,163.6070,0,U,57184,999,15994,.16197E-3,.3288E-4,0
SVYATOBOR 1 (RS60S),2023-091X,2026-05-21T16:55:42.354912,15.26099515,.0009816,97.5097,205.3842,176.2033,183.9281,0,U,57187,999,16027,.23644E-3,.6031E-4,0
HORS 1,2023-091Y,2026-05-21T18:11:49.331904,15.26199706,.0009291,97.5077,205.2032,175.3304,184.8022,0,U,57188,999,16028,.24645E-3,.6308E-4,0
VIZARD-METEO (RS38S),2023-091Z,2026-05-21T18:08:27.683808,15.35076049,.0008422,97.5097,210.7288,156.5364,203.6265,0,U,57189,999,16063,.33812E-3,.11442E-3,0
SITRO-AIS 6 (CHIRKIN),2023-091AC,2026-05-21T17:57:07.581888,15.25361874,.0011712,97.5076,204.6644,191.0378,169.0604,0,U,57192,999,16025,.24918E-3,.6223E-4,0
SITRO-AIS 8 (ANOKHIN),2023-091AD,2026-05-21T16:40:42.930912,15.31322493,.0010886,97.5064,206.8378,183.4262,176.6907,0,U,57193,999,16039,.32272E-3,.9703E-4,0
SITRO-AIS 7 (FARTUSHNIY),2023-091AE,2026-05-21T17:54:01.784736,15.25063061,.0011522,97.5074,204.5007,192.1203,167.9759,0,U,57194,999,16024,.24703E-3,.6113E-4,0
AVION KALUGA 650,2023-091AF,2026-05-21T16:49:55.769088,15.20030125,.0010119,97.5100,201.3890,193.8397,166.2562,0,U,57195,999,16000,.17991E-3,.3813E-4,0
HORS 2,2023-091AG,2026-05-21T16:52:05.153088,15.31129764,.00089,97.5096,208.3850,167.5090,192.6373,0,U,57196,999,16047,.30775E-3,.9187E-4,0
A-SEANSAT-PG1,2023-091AH,2026-05-21T16:47:44.904192,15.35922687,.0008236,97.5086,210.7353,163.4907,196.6606,0,U,57197,999,16064,.3495E-3,.12156E-3,0
SITRO-AIS 10 (BURDAEV),2023-091AK,2026-05-21T16:55:29.218656,15.37484584,.0007784,97.5086,211.6356,157.8093,202.3490,0,U,57199,999,16069,.36613E-3,.13396E-3,0
SITRO-AIS 9 (SHCHUKIN),2023-091AM,2026-05-21T17:21:48.874176,15.37027539,.0007983,97.5084,211.4044,158.2041,201.9544,0,U,57201,999,16068,.3656E-3,.13181E-3,0
UTMN 2 (RS27S),2023-091AP,2026-05-21T17:35:39.222240,15.31315742,.00089,97.5094,208.6006,163.2569,196.8968,0,U,57203,999,16049,.30033E-3,.9016E-4,0
SITRO-AIS 12 (SMIRENNIY),2023-091AQ,2026-05-21T17:15:26.333856,15.37313974,.000774,97.5096,211.8505,152.9239,207.2410,0,U,57204,999,16070,.36286E-3,.13202E-3,0
SITRO-AIS 11 (SHEFFER),2023-091AU,2026-05-21T17:44:58.640640,15.37712371,.0007659,97.5095,212.1019,152.6914,207.4735,0,U,57208,999,16072,.38148E-3,.14066E-3,0
H2SAT (HEINRICH HERTZ),2023-093A,2026-05-21T17:36:55.605024,1.00270461,.0000758,0.0115,260.6667,197.2394,46.3851,0,U,57213,999,1065,0,-.6E-7,0
KUZGTU 1 (RS47S),2023-091AV,2026-05-21T17:37:41.068704,15.29170889,.0011308,97.5071,205.9569,181.6259,178.4946,0,U,57217,999,16033,.29086E-3,.8173E-4,0
QIANKUN-1,2023-103B,2026-05-21T09:45:39.843360,16.07631940,.0023714,96.1660,188.1005,124.6908,235.6616,0,U,57422,999,16299,.20804E-4,.1676E-3,.17838E-5
FENGYUN 3F,2023-111A,2026-05-21T18:15:57.712032,14.19933850,.0001392,98.6841,212.2607,111.3878,248.7447,0,U,57490,999,14511,.27216E-4,.14E-6,0
HJ-2F,2023-116A,2026-05-21T18:13:11.565696,15.21894376,.0010323,97.3852,147.4472,127.5198,232.6978,0,U,57519,999,15473,.23668E-3,.5325E-4,0
XRISM,2023-137A,2026-05-21T12:38:11.334912,15.12204164,.0007556,31.0008,172.2659,54.9756,305.1591,0,U,57800,999,14882,.12756E-3,.2355E-4,0
METEOR-M2 4,2024-039A,2026-05-21T17:38:06.867744,14.22426444,.0005981,98.6997,101.3679,242.8591,117.1977,0,U,59051,999,11550,.20408E-4,.2E-7,0
GRBBETA,2024-128C,2026-05-21T17:41:31.289280,15.06392876,.0044299,61.9903,309.0505,129.2445,231.2592,0,U,60237,999,10228,.21928E-3,.3096E-4,0
TRANSPORTER-11 OBJECT A,2024-149A,2026-05-21T17:05:12.415200,15.32422746,.0002092,97.3729,221.7337,343.0561,17.0611,0,U,60468,999,9800,.18601E-3,.5745E-4,0
WARATAH SEED-1,2024-149B,2026-05-21T17:16:15.684672,15.35199044,.0001004,97.3687,222.2844,25.5767,334.5526,0,U,60469,999,9805,.26674E-3,.9035E-4,0
PHISAT 2,2024-149C,2026-05-21T16:55:10.204608,15.30628632,.0001549,97.3755,221.0773,42.2706,317.8654,0,U,60470,999,9794,.19171E-3,.5599E-4,0
LEMUR-2-TOMATOKECHUP,2024-149D,2026-05-21T17:14:31.483680,15.35415070,.000123,97.3796,223.7105,39.2808,320.8524,0,U,60471,999,9810,.21431E-3,.7292E-4,0
CONNECTA IOT-1,2024-149E,2026-05-21T18:09:42.367104,15.23307558,.0002702,97.3758,218.4985,50.6368,309.5108,0,U,60472,999,9777,.1186E-3,.2744E-4,0
